POEM-2                  
1 56308U 23057A   26068.98468983  .00003020  00000+0  20743-3 0  9999
2 56308   9.8873 262.7521 0021373 321.9306  37.9396 14.94660083157397
STARLINK-36221          
1 67215U 25304Z   26068.70439357 -.00005012  00000+0 -41268-3 0  9998
2 67215  70.0026 174.5449 0004157 274.6212  85.4472 14.98316025 13882
